{
    "links": {
        "self": "http://www.neowsapp.com/rest/v1/neo/3751525?api_key=iIulBulltgU6a56xZRHN4H3l9WmuAYTsLGpBGhQ2"
    },
    "id": "3751525",
    "neo_reference_id": "3751525",
    "name": "(2016 GA207)",
    "designation": "2016 GA207",
    "nasa_jpl_url": "http://ssd.jpl.nasa.gov/sbdb.cgi?sstr=3751525",
    "absolute_magnitude_h": 23.5,
    "estimated_diameter": {
        "kilometers": {
            "estimated_diameter_min": 0.0530340723,
            "estimated_diameter_max": 0.1185877909
        },
        "meters": {
            "estimated_diameter_min": 53.0340723319,
            "estimated_diameter_max": 118.5877908577
        },
        "miles": {
            "estimated_diameter_min": 0.0329538346,
            "estimated_diameter_max": 0.0736870142
        },
        "feet": {
            "estimated_diameter_min": 173.9963058693,
            "estimated_diameter_max": 389.0675677576
        }
    },
    "is_potentially_hazardous_asteroid": false,
    "close_approach_data": [
        {
            "close_approach_date": "2016-03-20",
            "close_approach_date_full": "2016-Mar-20 05:02",
            "epoch_date_close_approach": 1458450120000,
            "relative_velocity": {
                "kilometers_per_second": "5.5982034633",
                "kilometers_per_hour": "20153.5324679689",
                "miles_per_hour": "12522.621327111"
            },
            "miss_distance": {
                "astronomical": "0.210967846",
                "lunar": "82.066492094",
                "kilometers": "31560340.40008802",
                "miles": "19610686.165013876"
            },
            "orbiting_body": "Earth"
        },
        {
            "close_approach_date": "2023-03-30",
            "close_approach_date_full": "2023-Mar-30 13:42",
            "epoch_date_close_approach": 1680183720000,
            "relative_velocity": {
                "kilometers_per_second": "6.5364291965",
                "kilometers_per_hour": "23531.1451073155",
                "miles_per_hour": "14621.3384695984"
            },
            "miss_distance": {
                "astronomical": "0.2900867082",
                "lunar": "112.8437294898",
                "kilometers": "43396353.662031534",
                "miles": "26965243.7706178092"
            },
            "orbiting_body": "Earth"
        }
    ],
    "orbital_data": {
        "orbit_id": "8",
        "orbit_determination_date": "2017-04-06 08:26:38",
        "first_observation_date": "2016-04-09",
        "last_observation_date": "2016-04-29",
        "data_arc_in_days": 20,
        "observations_used": 26,
        "orbit_uncertainty": "7",
        "minimum_orbit_intersection": ".184874",
        "jupiter_tisserand_invariant": "3.398",
        "epoch_osculation": "2459000.5",
        "eccentricity": ".4978198341212985",
        "semi_major_axis": "2.317078453707058",
        "inclination": "5.579478719161059",
        "ascending_node_longitude": "133.3035364493516",
        "orbital_period": "1288.277835781479",
        "perihelion_distance": "1.163590842236576",
        "perihelion_argument": "51.49092591220646",
        "aphelion_distance": "3.470566065177541",
        "perihelion_time": "2458755.334479974071",
        "mean_anomaly": "68.50974592432975",
        "mean_motion": ".2794428266955485",
        "equinox": "J2000",
        "orbit_class": {
            "orbit_class_type": "AMO",
            "orbit_class_description": "Near-Earth asteroid orbits similar to that of 1221 Amor",
            "orbit_class_range": "1.017 AU < q (perihelion) < 1.3 AU"
        }
    },
    "is_sentry_object": false
}